[{"OBJECT_NAME":"STARLINK-5591","OBJECT_ID":"2023-028AG","EPOCH":"2026-03-09T19:46:08.982048","MEAN_MOTION":14.98331041,"ECCENTRICITY":0.00030516,"INCLINATION":69.9995,"RA_OF_ASC_NODE":224.0962,"ARG_OF_PERICENTER":271.1011,"MEAN_ANOMALY":88.9798,"EPHEMERIS_TYPE":0,"CLASSIFICATION_TYPE":"U","NORAD_CAT_ID":55771,"ELEMENT_SET_NO":999,"REV_AT_EPOCH":16655,"BSTAR":0.00012836784,"MEAN_MOTION_DOT":1.439e-5,"MEAN_MOTION_DDOT":0},{"OBJECT_NAME":"FENGYUN 1C DEB","OBJECT_ID":"1999-025BRA","EPOCH":"2026-03-07T21:38:03.570144","MEAN_MOTION":15.14550758,"ECCENTRICITY":0.01045185,"INCLINATION":98.8762,"RA_OF_ASC_NODE":52.6466,"ARG_OF_PERICENTER":91.2586,"MEAN_ANOMALY":270.0618,"EPHEMERIS_TYPE":0,"CLASSIFICATION_TYPE":"U","NORAD_CAT_ID":31346,"ELEMENT_SET_NO":999,"REV_AT_EPOCH":773,"BSTAR":0.0014203897,"MEAN_MOTION_DOT":0.00030047,"MEAN_MOTION_DDOT":0}]
